[
  {
    "__v": 0,
    "_id": {
      "$oid": "64f67f368558cd6698857155"
    },
    "altimeter": 30.17,
    "icao": "KPDX",
    "metar": "KPDX 300153Z 35007G20KT 9SM FEW065 17/04 A3017 RMK AO2 SLP216 T01670044",
    "source": "Vatsim"
  }
]
